NORAD_CAT_ID,OBJECT_NAME,OBJECT_TYPE,EPOCH,MEAN_MOTION,ECCENTRICITY,INCLINATION,RA_OF_ASC_NODE,ARG_OF_PERICENTER,MEAN_ANOMALY,BSTAR,MEAN_MOTION_DOT,MEAN_MOTION_DDOT,TLE_LINE0,TLE_LINE1,TLE_LINE2,SEMIMAJOR_AXIS,PERIOD,APOGEE,PERIGEE,DECAYED
53714.0,STARLINK-4688,PAYLOAD,2023-05-11 20:22:21,15.08842255,0.0001278,53.214,185.5004,83.7471,276.3667,8.4851e-05,1.063e-05,0.0,0 STARLINK-4688,1 53714U 22107Q   23131.84886067  .00001063  00000-0  84851-4 0  9999,2 53714  53.2140 185.5004 0001278  83.7471 276.3667 15.08842255 38398,6917.873,95.437,540.623,538.854,0.0
53714.0,STARLINK-4688,PAYLOAD,2023-05-11 23:33:08,15.08836962,0.0001306,53.2147,184.9066,88.7755,271.3387,8.3396e-05,1.039e-05,0.0,0 STARLINK-4688,1 53714U 22107Q   23131.98134499  .00001039  00000-0  83396-4 0  9995,2 53714  53.2147 184.9066 0001306  88.7755 271.3387 15.08836962 38851,6917.89,95.438,540.658,538.851,0.0
53714.0,STARLINK-4688,PAYLOAD,2023-05-12 09:05:27,15.08836394,0.0001284,53.2146,183.1223,90.9013,269.2126,1.172e-05,-1.01e-06,0.0,0 STARLINK-4688,1 53714U 22107Q   23132.37878605 -.00000101  00000-0  11720-4 0  9995,2 53714  53.2146 183.1223 0001284  90.9013 269.2126 15.08836394 38477,6917.891,95.438,540.645,538.868,0.0
53714.0,STARLINK-4688,PAYLOAD,2023-05-13 12:06:59,15.08845881,0.0001313,53.2148,178.0686,99.3842,260.7298,0.00014963,2.095e-05,0.0,0 STARLINK-4688,1 53714U 22107Q   23133.50486054  .00002095  00000-0  14963-3 0  9998,2 53714  53.2148 178.0686 0001313  99.3842 260.7298 15.08845881 38647,6917.862,95.437,540.636,538.819,0.0
53714.0,STARLINK-4688,PAYLOAD,2023-05-13 20:03:55,15.08845634,0.0001217,53.2145,176.5808,91.4299,268.6832,-0.00013884,-2.497e-05,0.0,0 STARLINK-4688,1 53714U 22107Q   23133.83605985 -.00002497  00000-0 -13884-3 0  9999,2 53714  53.2145 176.5808 0001217  91.4299 268.6832 15.08845634 39137,6917.863,95.437,540.57,538.886,0.0
53714.0,STARLINK-4688,PAYLOAD,2023-05-14 07:11:38,15.08834326,0.0001305,53.214,174.4981,89.3354,270.7787,5.998e-05,6.67e-06,0.0,0 STARLINK-4688,1 53714U 22107Q   23134.29974862  .00000667  00000-0  59980-4 0  9996,2 53714  53.2140 174.4981 0001305  89.3354 270.7787 15.08834326 38764,6917.898,95.438,540.666,538.86,0.0
53714.0,STARLINK-4688,PAYLOAD,2023-05-14 11:57:47,15.08837967,0.0001364,53.2146,173.6069,87.5158,272.599,6.1274e-05,6.87e-06,0.0,0 STARLINK-4688,1 53714U 22107Q   23134.49846730  .00000687  00000-0  61274-4 0  9991,2 53714  53.2146 173.6069 0001364  87.5158 272.5990 15.08837967 39238,6917.887,95.438,540.695,538.808,0.0
53714.0,STARLINK-4688,PAYLOAD,2023-05-14 19:54:43,15.08832045,0.0001367,53.2142,172.1184,89.3469,270.768,0.00013221,1.816e-05,0.0,0 STARLINK-4688,1 53714U 22107Q   23134.82967145  .00001816  00000-0  13221-3 0  9995,2 53714  53.2142 172.1184 0001367  89.3469 270.7680 15.08832045 39287,6917.905,95.438,540.715,538.824,0.0
53714.0,STARLINK-4688,PAYLOAD,2023-05-15 11:48:34,15.08841312,0.000135,53.2147,169.1441,89.983,270.1317,5.2281e-05,5.44e-06,0.0,0 STARLINK-4688,1 53714U 22107Q   23135.49206758  .00000544  00000-0  52281-4 0  9992,2 53714  53.2147 169.1441 0001350  89.9830 270.1317 15.08841312 38944,6917.876,95.437,540.675,538.807,0.0
53714.0,STARLINK-4688,PAYLOAD,2023-05-15 19:45:30,15.08840743,0.0001343,53.215,167.6569,90.3395,269.7751,6.2048e-05,7e-06,0.0,0 STARLINK-4688,1 53714U 22107Q   23135.82326729  .00000700  00000-0  62048-4 0  9996,2 53714  53.2150 167.6569 0001343  90.3395 269.7751 15.08840743 39434,6917.878,95.438,540.672,538.814,0.0
53714.0,STARLINK-4688,PAYLOAD,2023-05-16 11:39:21,15.08842043,0.0001327,53.2147,164.6833,88.8974,271.2171,0.00010321,1.355e-05,0.0,0 STARLINK-4688,1 53714U 22107Q   23136.48566591  .00001355  00000-0  10321-3 0  9995,2 53714  53.2147 164.6833 0001327  88.8974 271.2171 15.08842043 39538,6917.874,95.437,540.657,538.821,0.0
53714.0,STARLINK-4688,PAYLOAD,2023-05-17 08:19:22,15.08838881,0.0001325,53.2152,160.8165,92.7584,267.356,4.8616e-05,4.86e-06,0.0,0 STARLINK-4688,1 53714U 22107Q   23137.34678915  .00000486  00000-0  48616-4 0  9998,2 53714  53.2152 160.8165 0001325  92.7584 267.3560 15.08838881 39228,6917.884,95.438,540.665,538.832,0.0
53714.0,STARLINK-4688,PAYLOAD,2023-05-17 11:30:08,15.08838434,0.0001327,53.2152,160.2221,91.5145,268.5999,4.0056e-05,3.5e-06,0.0,0 STARLINK-4688,1 53714U 22107Q   23137.47926973  .00000350  00000-0  40056-4 0  9992,2 53714  53.2152 160.2221 0001327  91.5145 268.5999 15.08838434 39680,6917.885,95.438,540.668,538.832,0.0
53714.0,STARLINK-4688,PAYLOAD,2023-05-18 11:20:55,15.08838145,0.0001324,53.2154,155.7616,93.499,266.6154,7.8359e-06,-1.63e-06,0.0,0 STARLINK-4688,1 53714U 22107Q   23138.47287033 -.00000163  00000-0  78359-5 0  9991,2 53714  53.2154 155.7616 0001324  93.4990 266.6154 15.08838145 39394,6917.886,95.438,540.667,538.835,0.0
53714.0,STARLINK-4688,PAYLOAD,2023-05-18 12:56:19,15.08839225,0.0001334,53.2155,155.4644,95.5014,264.613,1.495e-05,-5e-07,0.0,0 STARLINK-4688,1 53714U 22107Q   23138.53910935 -.00000050  00000-0  14950-4 0  9993,2 53714  53.2155 155.4644 0001334  95.5014 264.6130 15.08839225 39846,6917.883,95.438,540.671,538.825,0.0
53714.0,STARLINK-4688,PAYLOAD,2023-05-18 17:42:28,15.0883748,0.0001316,53.2156,154.5722,95.5956,264.5186,1.6594e-05,-2.4e-07,0.0,0 STARLINK-4688,1 53714U 22107Q   23138.73783038 -.00000024  00000-0  16594-4 0  9994,2 53714  53.2156 154.5722 0001316  95.5956 264.5186 15.08837480 39873,6917.888,95.438,540.663,538.843,0.0
53714.0,STARLINK-4688,PAYLOAD,2023-05-19 17:33:15,15.08836847,0.0001262,53.2157,150.1121,88.6625,271.4511,2.4598e-05,1.04e-06,0.0,0 STARLINK-4688,1 53714U 22107Q   23139.73143224  .00000104  00000-0  24598-4 0  9993,2 53714  53.2157 150.1121 0001262  88.6625 271.4511 15.08836847 39588,6917.89,95.438,540.628,538.882,0.0
53714.0,STARLINK-4688,PAYLOAD,2023-05-20 17:24:02,15.08841468,0.0001246,53.2157,145.6518,88.9393,271.1742,6.8369e-05,8e-06,0.0,0 STARLINK-4688,1 53714U 22107Q   23140.72502971  .00000800  00000-0  68369-4 0  9999,2 53714  53.2157 145.6518 0001246  88.9393 271.1742 15.08841468 40179,6917.876,95.437,540.603,538.879,0.0
53714.0,STARLINK-4688,PAYLOAD,2023-05-21 06:07:07,15.08845181,0.0001242,53.2156,143.2731,89.0874,271.026,9.2044e-05,1.178e-05,0.0,0 STARLINK-4688,1 53714U 22107Q   23141.25494632  .00001178  00000-0  92044-4 0  9998,2 53714  53.2156 143.2731 0001242  89.0874 271.0260 15.08845181 39810,6917.865,95.437,540.589,538.87,0.0
53714.0,STARLINK-4688,PAYLOAD,2023-05-21 17:14:50,15.08834374,0.0001455,53.2173,141.1873,86.3284,273.7874,1.5012e-05,-4.9e-07,0.0,0 STARLINK-4688,1 53714U 22107Q   23141.71863572 -.00000049  00000-0  15012-4 0  9999,2 53714  53.2173 141.1873 0001455  86.3284 273.7874 15.08834374 39883,6917.898,95.438,540.769,538.756,0.0
53714.0,STARLINK-4688,PAYLOAD,2023-05-22 09:08:41,15.08832188,0.0001326,53.2153,138.2168,85.317,274.7973,-1.2949e-05,-4.94e-06,0.0,0 STARLINK-4688,1 53714U 22107Q   23142.38104066 -.00000494  00000-0 -12949-4 0  9990,2 53714  53.2153 138.2168 0001326  85.3170 274.7973 15.08832188 40429,6917.904,95.438,540.687,538.852,0.0
53714.0,STARLINK-4688,PAYLOAD,2023-05-22 17:05:37,15.08835677,0.0001336,53.2158,136.7307,84.2483,275.8661,1.2044e-05,-9.6e-07,0.0,0 STARLINK-4688,1 53714U 22107Q   23142.71223902 -.00000096  00000-0  12044-4 0  9991,2 53714  53.2158 136.7307 0001336  84.2483 275.8661 15.08835677 40475,6917.894,95.438,540.683,538.834,0.0
53714.0,STARLINK-4688,PAYLOAD,2023-05-22 23:27:09,15.08839412,0.0001302,53.2162,135.542,83.3959,276.7181,5.7618e-06,-1.96e-06,0.0,0 STARLINK-4688,1 53714U 22107Q   23142.97719734 -.00000196  00000-0  57618-5 0  9990,2 53714  53.2162 135.5420 0001302  83.3959 276.7181 15.08839412 40078,6917.882,95.438,540.648,538.846,0.0
53714.0,STARLINK-4688,PAYLOAD,2023-05-23 16:56:24,15.08841821,0.0001256,53.216,132.2708,83.6518,276.4617,6.1799e-05,6.96e-06,0.0,0 STARLINK-4688,1 53714U 22107Q   23143.70583413  .00000696  00000-0  61799-4 0  9993,2 53714  53.2160 132.2708 0001256  83.6518 276.4617 15.08841821 40620,6917.875,95.437,540.609,538.871,0.0
53714.0,STARLINK-4688,PAYLOAD,2023-05-24 08:50:15,15.08845301,0.0001253,53.216,129.2969,81.2428,278.8706,0.00017197,2.45e-05,0.0,0 STARLINK-4688,1 53714U 22107Q   23144.36822942  .00002450  00000-0  17197-3 0  9991,2 53714  53.2160 129.2969 0001253  81.2428 278.8706 15.08845301 40280,6917.864,95.437,540.596,538.862,0.0
53714.0,STARLINK-4688,PAYLOAD,2023-05-26 03:45:40,15.08839383,0.0001217,53.2158,121.2693,78.8267,281.2861,7.9665e-06,-1.61e-06,0.0,0 STARLINK-4688,1 53714U 22107Q   23146.15671857 -.00000161  00000-0  79665-5 0  9995,2 53714  53.2158 121.2693 0001217  78.8267 281.2861 15.08839383 40559,6917.882,95.438,540.589,538.905,0.0
53714.0,STARLINK-4688,PAYLOAD,2023-05-26 05:21:03,15.08843535,0.0001241,53.2158,120.9716,82.9693,277.144,-1.9721e-05,-6.02e-06,0.0,0 STARLINK-4688,1 53714U 22107Q   23146.22295624 -.00000602  00000-0 -19721-4 0  9994,2 53714  53.2158 120.9716 0001241  82.9693 277.1440 15.08843535 41009,6917.87,95.437,540.593,538.876,0.0
53714.0,STARLINK-4688,PAYLOAD,2023-05-26 21:14:55,15.08834164,0.0001221,53.2159,117.9971,99.9509,260.1621,3.7986e-05,3.17e-06,0.0,0 STARLINK-4688,1 53714U 22107Q   23146.88536088  .00000317  00000-0  37986-4 0  9992,2 53714  53.2159 117.9971 0001221  99.9509 260.1621 15.08834164 41103,6917.898,95.438,540.608,538.919,0.0
53714.0,STARLINK-4688,PAYLOAD,2023-05-27 05:11:50,15.0883493,0.0001261,53.2162,116.5113,93.8684,266.2453,3.6977e-05,3.01e-06,0.0,0 STARLINK-4688,1 53714U 22107Q   23147.21656176  .00000301  00000-0  36977-4 0  9993,2 53714  53.2162 116.5113 0001261  93.8684 266.2453 15.08834930 40718,6917.896,95.438,540.633,538.889,0.0
53714.0,STARLINK-4688,PAYLOAD,2023-05-27 14:44:09,15.08835315,0.0001258,53.2164,114.7271,90.6406,269.473,4.9681e-05,5.03e-06,0.0,0 STARLINK-4688,1 53714U 22107Q   23147.61400252  .00000503  00000-0  49681-4 0  9999,2 53714  53.2164 114.7271 0001258  90.6406 269.4730 15.08835315 41215,6917.895,95.438,540.63,538.889,0.0
